SL-16 R/B               
1 23405U 94077B   26190.73309818 -.00000290  00000+0 -12372-3 0  9998
2 23405  70.9829  95.7312 0004058 307.6531  52.4223 14.15575812633504
ARIANE 40+ R/B          
1 23561U 95021B   26191.18813172  .00000136  00000+0  57137-4 0  9990
2 23561  98.4402 260.9298 0007751 129.3535 254.5926 14.39845904636870
SL-16 R/B               
1 23705U 95058B   26191.24062752 -.00000127  00000+0 -40523-4 0  9990
2 23705  71.0215 282.9575 0014608 289.2839  70.6704 14.15508118585199
SL-16 R/B               
1 24298U 96051B   26191.18930947  .00000131  00000+0  97553-4 0  9993
2 24298  70.7650 275.9704 0017400 304.6233  55.3245 14.12454537538948
ORBVIEW 2 (SEASTAR)     
1 24883U 97037A   26190.74182676  .00000148  00000+0  67593-4 0  9996
2 24883  98.8708 358.3882 0003226  71.7834 288.3701 14.35565113525989
SL-16 R/B               
1 25400U 98043G   26190.81487311  .00000014  00000+0  24840-4 0  9992
2 25400  98.8377 145.1702 0010323  26.3833 333.7870 14.26072209456390
SL-16 R/B               
1 25407U 98045B   26191.26206603 -.00000231  00000+0 -92462-4 0  9992
2 25407  71.0120 283.8029 0008430 213.5475 146.5115 14.16207072444459
ISS (ZARYA)             
1 25544U 98067A   26191.15356376  .00005628  00000+0  11035-3 0  9998
2 25544  51.6302 186.4276 0006683 277.8890  82.1339 15.48965714575314
CZ-4B R/B               
1 25732U 99025C   26191.05950940  .00000006  00000+0  23675-4 0  9997
2 25732  98.6473 232.3211 0036928 354.6614  33.4161 14.18287138405515
OKEAN-O                 
1 25860U 99039A   26191.12428928  .00000336  00000+0  50705-4 0  9998
2 25860  97.9304 249.6575 0000996  77.9486 282.1838 14.80493917452502
SL-16 R/B               
1 25861U 99039B   26191.12477792  .00000281  00000+0  42349-4 0  9996
2 25861  97.9825 249.9211 0013938 215.5721 144.4564 14.81867733454996
DELTA 2 R/B             
1 25876U 99041E   26191.32092388  .00001256  00000+0  24015-3 0  9993
2 25876  51.7613 171.3733 0501270 350.3651   8.7936 14.12071111380357
HELIOS 1B               
1 25977U 99064A   26191.17594662  .00000871  00000+0  10117-3 0  9995
2 25977  98.1593  96.9794 0002157  60.3923 299.7508 14.88067510703470
TERRA                   
1 25994U 99068A   26191.30709104  .00000227  00000+0  55092-4 0  9999
2 25994  97.9443 239.9353 0003204 132.4782 318.6101 14.61121317412988
SL-16 R/B               
1 26070U 00006B   26191.02662311 -.00000244  00000+0 -99655-4 0  9990
2 26070  71.0003 200.6011 0016978 347.2271  12.8419 14.15839536365874
TITAN 4B R/B            
1 26474U 00047B   26191.23988525  .00001632  00000+0  10541-3 0  9990
2 26474  67.9872  55.6792 0045956 263.6638  95.9277 15.10318603411419
ENVISAT                 
1 27386U 02009A   26191.34976940  .00000029  00000+0  23408-4 0  9999
2 27386  98.3846 142.1531 0001352  84.3059  63.5741 14.39070079276813
IDEFIX & ARIANE 42P R/B 
1 27422U 02021B   26191.27208050  .00000105  00000+0  56476-4 0  9992
2 27422  98.5942 128.5054 0011586 180.8092 179.3074 14.31092447261555
AQUA                    
1 27424U 02022A   26191.26209170  .00000478  00000+0  10470-3 0  9994
2 27424  98.4291 161.0082 0000800 104.5523   7.0393 14.62192713286644
CZ-4B R/B               
1 27432U 02024C   26191.14814853 -.00000004  00000+0  20686-4 0  9999
2 27432  98.8688 243.8178 0050731  36.2022 336.4561 14.14567750246551
MIDORI II (ADEOS-II)    
1 27597U 02056A   26190.60848182  .00000147  00000+0  75585-4 0  9993
2 27597  98.7891 150.0604 0001705  47.5905 312.5420 14.29361303227711
H-2A R/B                
1 27601U 02056E   26191.33769890  .00000135  00000+0  61577-4 0  9991
2 27601  98.3325 147.1699 0070618 155.2739 359.3473 14.33832270231686
CZ-4B R/B               
1 28059U 03049C   26190.99199359  .00000160  00000+0  48379-4 0  9993
2 28059  98.6906 190.7473 0047336 217.3645 142.4256 14.55113935204384
CZ-2C R/B               
1 28222U 04012C   26189.80327200  .00099446  00000+0  44522-3 0  9992
2 28222  97.7050 268.0571 0011127 210.2414 149.8213 15.83823781223316
SL-16 R/B               
1 28353U 04021B   26190.64770067  .00000196  00000+0  12681-3 0  9999
2 28353  71.0023 336.5501 0006462 229.7295 130.3263 14.14615079140082
CZ-4B R/B               
1 28415U 04035C   26191.07683070  .00005127  00000+0  17194-3 0  9991
2 28415  97.3363 223.8953 0028970 251.7911 108.0176 15.30946600198620
CZ-2C R/B               
1 28480U 04046B   26191.18991296  .00000050  00000+0  33450-4 0  9993
2 28480  98.1925  98.5309 0139855 152.1241 208.7525 14.27032158125975
ARIANE 5 R/B            
1 28499U 04049H   26190.96504801  .00000312  00000+0  41280-4 0  9994
2 28499  98.2737   4.1006 0082885 315.4598  43.9973 14.85475243163948
CZ-2D R/B               
1 28738U 05024B   26191.02468156  .00053547  00000+0  40523-3 0  9990
2 28738  97.3474 211.6350 0001436 209.4582 150.6601 15.72259089158928
ALOS (DAICHI)           
1 28931U 06002A   26190.82412380  .00000659  00000+0  11792-3 0  9999
2 28931  98.1335 146.3228 0000779  84.1885 275.9410 14.70095524 91428
