OBJECT_NAME,OBJECT_ID,EPOCH,MEAN_MOTION,ECCENTRICITY,INCLINATION,RA_OF_ASC_NODE,ARG_OF_PERICENTER,MEAN_ANOMALY,EPHEMERIS_TYPE,CLASSIFICATION_TYPE,NORAD_CAT_ID,ELEMENT_SET_NO,REV_AT_EPOCH,BSTAR,MEAN_MOTION_DOT,MEAN_MOTION_DDOT
SL-16 R/B,1994-077B,2026-07-09T17:35:39.682752,14.15575812,.00040581,70.9829,95.7312,307.6531,52.4223,0,U,23405,999,63350,-.12371519E-3,-.29E-5,0
ARIANE 40+ R/B,1995-021B,2026-07-10T04:30:54.580608,14.39845904,.00077513,98.4402,260.9298,129.3535,254.5926,0,U,23561,999,63687,.57136772E-4,.136E-5,0
SL-16 R/B,1995-058B,2026-07-10T05:46:30.217728,14.15508118,.00146081,71.0215,282.9575,289.2839,70.6704,0,U,23705,999,58519,-.40522722E-4,-.127E-5,0
SL-16 R/B,1996-051B,2026-07-10T04:32:36.338208,14.12454537,.00174006,70.7650,275.9704,304.6233,55.3245,0,U,24298,999,53894,.97553211E-4,.131E-5,0
ORBVIEW 2 (SEASTAR),1997-037A,2026-07-09T17:48:13.832064,14.35565113,.00032268,98.8708,358.3882,71.7834,288.3701,0,U,24883,999,52598,.67593343E-4,.148E-5,0
SL-16 R/B,1998-043G,2026-07-09T19:33:25.036704,14.26072209,.00103238,98.8377,145.1702,26.3833,333.7870,0,U,25400,999,45639,.24840282E-4,.14E-6,0
SL-16 R/B,1998-045B,2026-07-10T06:17:22.504992,14.16207072,.00084303,71.0120,283.8029,213.5475,146.5115,0,U,25407,999,44445,-.92461759E-4,-.231E-5,0
ISS (ZARYA),1998-067A,2026-07-10T03:41:07.908864,15.48965714,.00066838,51.6302,186.4276,277.8890,82.1339,0,U,25544,999,57531,.11035045E-3,.5628E-4,0
CZ-4B R/B,1999-025C,2026-07-10T01:25:41.612160,14.18287138,.00369286,98.6473,232.3211,354.6614,33.4161,0,U,25732,999,40551,.23674816E-4,.6E-7,0
OKEAN-O,1999-039A,2026-07-10T02:58:58.593792,14.80493917,.00009966,97.9304,249.6575,77.9486,282.1838,0,U,25860,999,45250,.50704918E-4,.336E-5,0
SL-16 R/B,1999-039B,2026-07-10T02:59:40.812288,14.81867733,.00139386,97.9825,249.9211,215.5721,144.4564,0,U,25861,999,45499,.42349391E-4,.281E-5,0
DELTA 2 R/B,1999-041E,2026-07-10T07:42:07.823232,14.12071111,.05012709,51.7613,171.3733,350.3651,8.7936,0,U,25876,999,38035,.2401526E-3,.1256E-4,0
HELIOS 1B,1999-064A,2026-07-10T04:13:21.787968,14.88067510,.00021572,98.1593,96.9794,60.3923,299.7508,0,U,25977,999,70347,.10116526E-3,.871E-5,0
TERRA,1999-068A,2026-07-10T07:22:12.665856,14.61121317,.00032042,97.9443,239.9353,132.4782,318.6101,0,U,25994,999,41298,.550922E-4,.227E-5,0
SL-16 R/B,2000-006B,2026-07-10T00:38:20.236704,14.15839536,.00169787,71.0003,200.6011,347.2271,12.8419,0,U,26070,999,36587,-.99655472E-4,-.244E-5,0
TITAN 4B R/B,2000-047B,2026-07-10T05:45:26.085600,15.10318603,.00459566,67.9872,55.6792,263.6638,95.9277,0,U,26474,999,41141,.10540513E-3,.1632E-4,0
ENVISAT,2002-009A,2026-07-10T08:23:40.076160,14.39070079,.00013529,98.3846,142.1531,84.3059,63.5741,0,U,27386,999,27681,.2340758E-4,.29E-6,0
IDEFIX & ARIANE 42P R/B,2002-021B,2026-07-10T06:31:47.755200,14.31092447,.00115861,98.5942,128.5054,180.8092,179.3074,0,U,27422,999,26155,.56475991E-4,.105E-5,0
AQUA,2002-022A,2026-07-10T06:17:24.722880,14.62192713,.00008005,98.4291,161.0082,104.5523,7.0393,0,U,27424,999,28664,.10469885E-3,.478E-5,0
CZ-4B R/B,2002-024C,2026-07-10T03:33:20.032992,14.14567750,.00507313,98.8688,243.8178,36.2022,336.4561,0,U,27432,999,24655,.20685565E-4,-.4E-7,0
MIDORI II (ADEOS-II),2002-056A,2026-07-09T14:36:12.829248,14.29361303,.00017056,98.7891,150.0604,47.5905,312.5420,0,U,27597,999,22771,.7558539E-4,.147E-5,0
H-2A R/B,2002-056E,2026-07-10T08:06:17.184960,14.33832270,.00706187,98.3325,147.1699,155.2739,359.3473,0,U,27601,999,23168,.61576546E-4,.135E-5,0
CZ-4B R/B,2003-049C,2026-07-09T23:48:28.246176,14.55113935,.00473367,98.6906,190.7473,217.3645,142.4256,0,U,28059,999,20438,.48379427E-4,.16E-5,0
CZ-2C R/B,2004-012C,2026-07-08T19:16:42.700800,15.83823781,.00111271,97.7050,268.0571,210.2414,149.8213,0,U,28222,999,22331,.44522244E-3,.99446E-3,0
SL-16 R/B,2004-021B,2026-07-09T15:32:41.337888,14.14615079,.00064622,71.0023,336.5501,229.7295,130.3263,0,U,28353,999,14008,.12681372E-3,.196E-5,0
CZ-4B R/B,2004-035C,2026-07-10T01:50:38.172480,15.30946600,.002897,97.3363,223.8953,251.7911,108.0176,0,U,28415,999,19862,.17193816E-3,.5127E-4,0
CZ-2C R/B,2004-046B,2026-07-10T04:33:28.479744,14.27032158,.0139855,98.1925,98.5309,152.1241,208.7525,0,U,28480,999,12597,.33450247E-4,.5E-6,0
ARIANE 5 R/B,2004-049H,2026-07-09T23:09:40.148064,14.85475243,.0082885,98.2737,4.1006,315.4598,43.9973,0,U,28499,999,16394,.4127965E-4,.312E-5,0
CZ-2D R/B,2005-024B,2026-07-10T00:35:32.486784,15.72259089,.00014369,97.3474,211.6350,209.4582,150.6601,0,U,28738,999,15892,.40523081E-3,.53547E-3,0
ALOS (DAICHI),2006-002A,2026-07-09T19:46:44.296320,14.70095524,.00007798,98.1335,146.3228,84.1885,275.9410,0,U,28931,999,9142,.11791798E-3,.659E-5,0
